{"type": "FeatureCollection", "features": [ {"type": "Feature", "properties": {"norad_id": 51444, "name": "CSG-2", "group": "resource", "lat": 50.0078126977502, "lon": 159.04895895850746, "alt_km": 617.0031116432765, "timestamp": "2025-12-13T05:42:57.154955+00:00", "meta": {"OBJECT_NAME": "CSG-2", "OBJECT_ID": "2022-008A", "EPOCH": "2025-12-12T08:25:29.945856", "MEAN_MOTION": 14.82164691, "ECCENTRICITY": 0.00015495, "INCLINATION": 97.8809, "RA_OF_ASC_NODE": 167.6798, "ARG_OF_PERICENTER": 83.5878, "MEAN_ANOMALY": 276.5512, "EPHEMERIS_TYPE": 0, "CLASSIFICATION_TYPE": "U", "NORAD_CAT_ID": 51444, "ELEMENT_SET_NO": 999, "REV_AT_EPOCH": 20891, "BSTAR": 0.00015219259, "MEAN_MOTION_DOT": 1.16e-05, "MEAN_MOTION_DDOT": 0}, "tle": {"line1": "1 51444U 22008A   25346.35104104  .00001160  00000+0  15219-3 0  9996", "line2": "2 51444  97.8809 167.6798 0001549  83.5878 276.5512 14.82164691208913"}}, "geometry": {"type": "Point", "coordinates": [159.04895895850746, 50.0078126977502]}}, {"type": "Feature", "properties": {"norad_id": 52912, "name": "GAOFEN-12 03", "group": "resource", "lat": -37.02558879306776, "lon": -119.45352256201575, "alt_km": 637.1135397821363, "timestamp": "2025-12-13T05:42:57.154966+00:00", "meta": {"OBJECT_NAME": "GAOFEN-12 03", "OBJECT_ID": "2022-069A", "EPOCH": "2025-12-12T07:09:43.829280", "MEAN_MOTION": 14.79607336, "ECCENTRICITY": 0.00021722, "INCLINATION": 97.8475, "RA_OF_ASC_NODE": 233.6577, "ARG_OF_PERICENTER": 62.1312, "MEAN_ANOMALY": 298.0119, "EPHEMERIS_TYPE": 0, "CLASSIFICATION_TYPE": "U", "NORAD_CAT_ID": 52912, "ELEMENT_SET_NO": 999, "REV_AT_EPOCH": 18697, "BSTAR": 0.00026029896, "MEAN_MOTION_DOT": 1.9e-05, "MEAN_MOTION_DDOT": 0}, "tle": {"line1": "1 52912U 22069A   25346.29842395  .00001900  00000+0  26030-3 0  9993", "line2": "2 52912  97.8475 233.6577 0002172  62.1312 298.0119 14.79607336186978"}}, "geometry": {"type": "Point", "coordinates": [-119.45352256201575, -37.02558879306776]}}, {"type": "Feature", "properties": {"norad_id": 54754, "name": "SWOT", "group": "resource", "lat": 23.14339881384065, "lon": 100.92615983980824, "alt_km": 892.3606613534848, "timestamp": "2025-12-13T05:42:57.154978+00:00", "meta": {"OBJECT_NAME": "SWOT", "OBJECT_ID": "2022-173A", "EPOCH": "2025-12-12T06:40:43.925088", "MEAN_MOTION": 14.00174617, "ECCENTRICITY": 3.386e-05, "INCLINATION": 77.6106, "RA_OF_ASC_NODE": 287.6125, "ARG_OF_PERICENTER": 112.0086, "MEAN_ANOMALY": 248.1102, "EPHEMERIS_TYPE": 0, "CLASSIFICATION_TYPE": "U", "NORAD_CAT_ID": 54754, "ELEMENT_SET_NO": 999, "REV_AT_EPOCH": 15299, "BSTAR": 5.3174104e-05, "MEAN_MOTION_DOT": 7.6e-07, "MEAN_MOTION_DDOT": 0}, "tle": {"line1": "1 54754U 22173A   25346.27828617  .00000076  00000+0  53174-4 0  9997", "line2": "2 54754  77.6106 287.6125 0000338 112.0086 248.1102 14.00174617152992"}}, "geometry": {"type": "Point", "coordinates": [100.92615983980824, 23.14339881384065]}}, {"type": "Feature", "properties": {"norad_id": 57654, "name": "GAOFEN-12 04", "group": "resource", "lat": 46.86156521606212, "lon": 91.52218480994935, "alt_km": 625.7000118265723, "timestamp": "2025-12-13T05:42:57.154989+00:00", "meta": {"OBJECT_NAME": "GAOFEN-12 04", "OBJECT_ID": "2023-123A", "EPOCH": "2025-12-12T08:01:16.207104", "MEAN_MOTION": 14.79698953, "ECCENTRICITY": 0.00013306, "INCLINATION": 97.9116, "RA_OF_ASC_NODE": 262.0977, "ARG_OF_PERICENTER": 74.4041, "MEAN_ANOMALY": 285.7318, "EPHEMERIS_TYPE": 0, "CLASSIFICATION_TYPE": "U", "NORAD_CAT_ID": 57654, "ELEMENT_SET_NO": 999, "REV_AT_EPOCH": 12499, "BSTAR": 0.00032248518, "MEAN_MOTION_DOT": 2.371e-05, "MEAN_MOTION_DDOT": 0}, "tle": {"line1": "1 57654U 23123A   25346.33421536  .00002371  00000+0  32249-3 0  9990", "line2": "2 57654  97.9116 262.0977 0001330  74.4041 285.7318 14.79698953124992"}}, "geometry": {"type": "Point", "coordinates": [91.52218480994935, 46.86156521606212]}}, {"type": "Feature", "properties": {"norad_id": 59065, "name": "PARS 1", "group": "resource", "lat": -78.50721901232339, "lon": -1.6683088170404463, "alt_km": 458.0836428164266, "timestamp": "2025-12-13T05:42:57.155000+00:00", "meta": {"OBJECT_NAME": "PARS 1", "OBJECT_ID": "2024-039Q", "EPOCH": "2025-12-12T08:14:59.175744", "MEAN_MOTION": 15.40960231, "ECCENTRICITY": 0.00125844, "INCLINATION": 97.4636, "RA_OF_ASC_NODE": 317.2683, "ARG_OF_PERICENTER": 73.5043, "MEAN_ANOMALY": 286.7585, "EPHEMERIS_TYPE": 0, "CLASSIFICATION_TYPE": "U", "NORAD_CAT_ID": 59065, "ELEMENT_SET_NO": 999, "REV_AT_EPOCH": 9982, "BSTAR": 0.00041084528, "MEAN_MOTION_DOT": 0.00016894, "MEAN_MOTION_DDOT": 0}, "tle": {"line1": "1 59065U 24039Q   25346.34374046  .00016894  00000+0  41085-3 0  9992", "line2": "2 59065  97.4636 317.2683 0012584  73.5043 286.7585 15.40960231 99824"}}, "geometry": {"type": "Point", "coordinates": [-1.6683088170404463, -78.50721901232339]}}, {"type": "Feature", "properties": {"norad_id": 59371, "name": "RESURS-P 4", "group": "resource", "lat": 44.446711398362694, "lon": -73.61930585756627, "alt_km": 464.82016529428165, "timestamp": "2025-12-13T05:42:57.155011+00:00", "meta": {"OBJECT_NAME": "RESURS-P 4", "OBJECT_ID": "2024-061A", "EPOCH": "2025-12-12T07:34:31.785024", "MEAN_MOTION": 15.32080164, "ECCENTRICITY": 0.00015373, "INCLINATION": 97.254, "RA_OF_ASC_NODE": 292.6544, "ARG_OF_PERICENTER": 52.181, "MEAN_ANOMALY": 307.9571, "EPHEMERIS_TYPE": 0, "CLASSIFICATION_TYPE": "U", "NORAD_CAT_ID": 59371, "ELEMENT_SET_NO": 999, "REV_AT_EPOCH": 9514, "BSTAR": 0.00019633357, "MEAN_MOTION_DOT": 6.005e-05, "MEAN_MOTION_DDOT": 0}, "tle": {"line1": "1 59371U 24061A   25346.31564566  .00006005  00000+0  19633-3 0  9999", "line2": "2 59371  97.2540 292.6544 0001537  52.1810 307.9571 15.32080164 95140"}}, "geometry": {"type": "Point", "coordinates": [-73.61930585756627, 44.446711398362694]}}, {"type": "Feature", "properties": {"norad_id": 59625, "name": "LEGION 1", "group": "resource", "lat": -61.17288340158034, "lon": -132.01801171841234, "alt_km": 522.9601666605349, "timestamp": "2025-12-13T05:42:57.155022+00:00", "meta": {"OBJECT_NAME": "LEGION 1", "OBJECT_ID": "2024-081A", "EPOCH": "2025-12-12T06:28:50.912544", "MEAN_MOTION": 15.16474437, "ECCENTRICITY": 0.00039629, "INCLINATION": 97.5212, "RA_OF_ASC_NODE": 60.9121, "ARG_OF_PERICENTER": 320.7679, "MEAN_ANOMALY": 39.3267, "EPHEMERIS_TYPE": 0, "CLASSIFICATION_TYPE": "U", "NORAD_CAT_ID": 59625, "ELEMENT_SET_NO": 999, "REV_AT_EPOCH": 8920, "BSTAR": 0.00039953702, "MEAN_MOTION_DOT": 7.714e-05, "MEAN_MOTION_DDOT": 0}, "tle": {"line1": "1 59625U 24081A   25346.27003371  .00007714  00000+0  39954-3 0  9996", "line2": "2 59625  97.5212  60.9121 0003962 320.7679  39.3267 15.16474437 89209"}}, "geometry": {"type": "Point", "coordinates": [-132.01801171841234, -61.17288340158034]}}, {"type": "Feature", "properties": {"norad_id": 59626, "name": "LEGION 2", "group": "resource", "lat": 60.93575606686648, "lon": 48.20693798056025, "alt_km": 513.0806306478898, "timestamp": "2025-12-13T05:42:57.155037+00:00", "meta": {"OBJECT_NAME": "LEGION 2", "OBJECT_ID": "2024-081B", "EPOCH": "2025-12-12T05:41:24.116352", "MEAN_MOTION": 15.1648464, "ECCENTRICITY": 0.00057693, "INCLINATION": 97.5213, "RA_OF_ASC_NODE": 60.9668, "ARG_OF_PERICENTER": 295.4982, "MEAN_ANOMALY": 64.5654, "EPHEMERIS_TYPE": 0, "CLASSIFICATION_TYPE": "U", "NORAD_CAT_ID": 59626, "ELEMENT_SET_NO": 999, "REV_AT_EPOCH": 8920, "BSTAR": 0.00043714497, "MEAN_MOTION_DOT": 8.451e-05, "MEAN_MOTION_DDOT": 0}, "tle": {"line1": "1 59626U 24081B   25346.23708468  .00008451  00000+0  43714-3 0  9990", "line2": "2 59626  97.5213  60.9668 0005769 295.4982  64.5654 15.16484640 89206"}}, "geometry": {"type": "Point", "coordinates": [48.20693798056025, 60.93575606686648]}}, {"type": "Feature", "properties": {"norad_id": 60182, "name": "ALOS-4 (DAICHI-4)", "group": "resource", "lat": 12.559918141904982, "lon": 80.2998837919631, "alt_km": 632.0124018832103, "timestamp": "2025-12-13T05:42:57.155048+00:00", "meta": {"OBJECT_NAME": "ALOS-4 (DAICHI-4)", "OBJECT_ID": "2024-123A", "EPOCH": "2025-12-10T20:50:51.532800", "MEAN_MOTION": 14.79478132, "ECCENTRICITY": 0.0001419, "INCLINATION": 97.9225, "RA_OF_ASC_NODE": 79.7424, "ARG_OF_PERICENTER": 101.2045, "MEAN_ANOMALY": 258.9326, "EPHEMERIS_TYPE": 0, "CLASSIFICATION_TYPE": "U", "NORAD_CAT_ID": 60182, "ELEMENT_SET_NO": 999, "REV_AT_EPOCH": 7803, "BSTAR": 0.00039567, "MEAN_MOTION_DOT": 2.905e-05, "MEAN_MOTION_DDOT": 0}, "tle": {"line1": "1 60182U 24123A   25344.86865200  .00002905  00000+0  39567-3 0  9990", "line2": "2 60182  97.9225  79.7424 0001419 101.2045 258.9326 14.79478132 78033"}}, "geometry": {"type": "Point", "coordinates": [80.2998837919631, 12.559918141904982]}}, {"type": "Feature", "properties": {"norad_id": 60452, "name": "LEGION 3", "group": "resource", "lat": 40.481224067779365, "lon": 68.80311535812686, "alt_km": 512.1450629098326, "timestamp": "2025-12-13T05:42:57.155059+00:00", "meta": {"OBJECT_NAME": "LEGION 3", "OBJECT_ID": "2024-146A", "EPOCH": "2025-12-12T05:29:30.788448", "MEAN_MOTION": 15.15753033, "ECCENTRICITY": 0.00148181, "INCLINATION": 45.0017, "RA_OF_ASC_NODE": 312.8722, "ARG_OF_PERICENTER": 195.944, "MEAN_ANOMALY": 164.0974, "EPHEMERIS_TYPE": 0, "CLASSIFICATION_TYPE": "U", "NORAD_CAT_ID": 60452, "ELEMENT_SET_NO": 999, "REV_AT_EPOCH": 7365, "BSTAR": 0.00042703628, "MEAN_MOTION_DOT": 8.048e-05, "MEAN_MOTION_DDOT": 0}, "tle": {"line1": "1 60452U 24146A   25346.22882857  .00008048  00000+0  42704-3 0  9995", "line2": "2 60452  45.0017 312.8722 0014818 195.9440 164.0974 15.15753033 73650"}}, "geometry": {"type": "Point", "coordinates": [68.80311535812686, 40.481224067779365]}}]}